start=new Date('2022-03-30T00:00:00.000Z').valueOf();
sats=[{"MEAN_MOTION_DOT":"-0.00002658","EPOCH":"2022-03-29T19:38:59.483328","TLE_LINE1":"1 45769U 20038AR  22088.81874402 -.00002658  00000-0 -15953-3 0  9997","MEAN_MOTION_DDOT":"0.0000000000000","BSTAR":"-0.00015953000000","OBJECT_ID":"2020-038AR","REV_AT_EPOCH":"9902","REF_FRAME":"TEME","PERIAPSIS":"546.096","SEMIMAJOR_AXIS":"6925.315","ARG_OF_PERICENTER":"49.3292","TLE_LINE2":"2 45769  53.0552 224.9490 0001565  49.3292 310.7832 15.06411014 99026","ELEMENT_SET_NO":"999","GP_ID":"200017835","RA_OF_ASC_NODE":"224.9490","SITE":"AFETR","RCS_SIZE":"LARGE","CENTER_NAME":"EARTH","CLASSIFICATION_TYPE":"U","PERIOD":"95.591","MEAN_MOTION":"15.06411014","LAUNCH_DATE":"2020-06-13","DECAY_DATE":null,"INCLINATION":"53.0552","ECCENTRICITY":"0.00015650","OBJECT_NAME":"STARLINK-1459","OBJECT_TYPE":"PAYLOAD","FILE":"3379484","MEAN_ELEMENT_THEORY":"SGP4","MEAN_ANOMALY":"310.7832","TIME_SYSTEM":"UTC","APOAPSIS":"548.264","NORAD_CAT_ID":"45769","EPHEMERIS_TYPE":"0","COUNTRY_CODE":"US"},{"MEAN_MOTION":"15.06383714","PERIOD":"95.593","ECCENTRICITY":"0.00016270","INCLINATION":"53.0526","DECAY_DATE":null,"LAUNCH_DATE":"2020-06-13","RA_OF_ASC_NODE":"185.5141","GP_ID":"200018083","CLASSIFICATION_TYPE":"U","CENTER_NAME":"EARTH","RCS_SIZE":"LARGE","SITE":"AFETR","NORAD_CAT_ID":"45770","APOAPSIS":"548.390","TIME_SYSTEM":"UTC","COUNTRY_CODE":"US","EPHEMERIS_TYPE":"0","OBJECT_TYPE":"PAYLOAD","OBJECT_NAME":"STARLINK-1462","MEAN_ANOMALY":"299.2929","MEAN_ELEMENT_THEORY":"SGP4","FILE":"3379484","TLE_LINE1":"1 45770U 20038AS  22088.68881005 -.00000086  00000-0  13122-4 0  9990","EPOCH":"2022-03-29T16:31:53.188320","MEAN_MOTION_DDOT":"0.0000000000000","BSTAR":"0.00001312200000","MEAN_MOTION_DOT":"-0.00000086","SEMIMAJOR_AXIS":"6925.398","ELEMENT_SET_NO":"999","TLE_LINE2":"2 45770  53.0526 185.5141 0001627  60.8223 299.2929 15.06383714 99556","ARG_OF_PERICENTER":"60.8223","OBJECT_ID":"2020-038AS","PERIAPSIS":"546.137","REF_FRAME":"TEME","REV_AT_EPOCH":"9955"},{"APOAPSIS":"548.348","NORAD_CAT_ID":"45771","TIME_SYSTEM":"UTC","COUNTRY_CODE":"US","EPHEMERIS_TYPE":"0","OBJECT_TYPE":"PAYLOAD","OBJECT_NAME":"STARLINK-1463","MEAN_ANOMALY":"292.0748","MEAN_ELEMENT_THEORY":"SGP4","FILE":"3379484","MEAN_MOTION":"15.06393410","PERIOD":"95.593","ECCENTRICITY":"0.00016090","INCLINATION":"53.0549","DECAY_DATE":null,"LAUNCH_DATE":"2020-06-13","RA_OF_ASC_NODE":"185.5607","GP_ID":"200017333","CLASSIFICATION_TYPE":"U","CENTER_NAME":"EARTH","SITE":"AFETR","RCS_SIZE":"LARGE","SEMIMAJOR_AXIS":"6925.369","ELEMENT_SET_NO":"999","TLE_LINE2":"2 45771  53.0549 185.5607 0001609  68.0411 292.0748 15.06393410 99552","ARG_OF_PERICENTER":"68.0411","OBJECT_ID":"2020-038AT","PERIAPSIS":"546.119","REF_FRAME":"TEME","REV_AT_EPOCH":"9955","TLE_LINE1":"1 45771U 20038AT  22088.68237286 -.00000072  00000-0  14081-4 0  9997","EPOCH":"2022-03-29T16:22:37.015104","BSTAR":"0.00001408100000","MEAN_MOTION_DDOT":"0.0000000000000","MEAN_MOTION_DOT":"-0.00000072"},{"COUNTRY_CODE":"US","EPHEMERIS_TYPE":"0","TIME_SYSTEM":"UTC","NORAD_CAT_ID":"45772","APOAPSIS":"548.146","MEAN_ANOMALY":"293.3398","FILE":"3379484","MEAN_ELEMENT_THEORY":"SGP4","OBJECT_TYPE":"PAYLOAD","OBJECT_NAME":"STARLINK-1470","DECAY_DATE":null,"ECCENTRICITY":"0.00013250","INCLINATION":"53.0526","LAUNCH_DATE":"2020-06-13","PERIOD":"95.592","MEAN_MOTION":"15.06395150","CLASSIFICATION_TYPE":"U","CENTER_NAME":"EARTH","RCS_SIZE":"LARGE","SITE":"AFETR","GP_ID":"200017583","RA_OF_ASC_NODE":"185.2979","TLE_LINE2":"2 45772  53.0526 185.2979 0001325  66.7731 293.3398 15.06395150 99572","ELEMENT_SET_NO":"999","ARG_OF_PERICENTER":"66.7731","SEMIMAJOR_AXIS":"6925.363","PERIAPSIS":"546.311","REV_AT_EPOCH":"9957","REF_FRAME":"TEME","OBJECT_ID":"2020-038AU","BSTAR":"0.00021987000000","MEAN_MOTION_DDOT":"0.0000000000000","TLE_LINE1":"1 45772U 20038AU  22088.73766982  .00002995  00000-0  21987-3 0  9991","EPOCH":"2022-03-29T17:42:14.672448","MEAN_MOTION_DOT":"0.00002995"},{"TIME_SYSTEM":"UTC","NORAD_CAT_ID":"45773","APOAPSIS":"548.283","COUNTRY_CODE":"US","EPHEMERIS_TYPE":"0","OBJECT_TYPE":"PAYLOAD","OBJECT_NAME":"STARLINK-1482","MEAN_ANOMALY":"296.0171","FILE":"3379484","MEAN_ELEMENT_THEORY":"SGP4","PERIOD":"95.592","MEAN_MOTION":"15.06396499","DECAY_DATE":null,"ECCENTRICITY":"0.00015290","INCLINATION":"53.0542","LAUNCH_DATE":"2020-06-13","GP_ID":"200018335","RA_OF_ASC_NODE":"185.6388","CENTER_NAME":"EARTH","CLASSIFICATION_TYPE":"U","SITE":"AFETR","RCS_SIZE":"LARGE","SEMIMAJOR_AXIS":"6925.359","TLE_LINE2":"2 45773  53.0542 185.6388 0001529  64.0976 296.0171 15.06396499 99562","ELEMENT_SET_NO":"999","ARG_OF_PERICENTER":"64.0976","OBJECT_ID":"2020-038AV","PERIAPSIS":"546.165","REV_AT_EPOCH":"9956","REF_FRAME":"TEME","TLE_LINE1":"1 45773U 20038AV  22088.66392721 -.00000837  00000-0 -37303-4 0  9995","EPOCH":"2022-03-29T15:56:03.310944","MEAN_MOTION_DDOT":"0.0000000000000","BSTAR":"-0.00003730300000","MEAN_MOTION_DOT":"-0.00000837"},{"MEAN_MOTION_DDOT":"0.0000000000000","BSTAR":"-0.00008545900000","EPOCH":"2022-03-29T15:13:37.707744","TLE_LINE1":"1 45774U 20038AW  22088.63446421 -.00001553  00000-0 -85459-4 0  9991","MEAN_MOTION_DOT":"-0.00001553","ARG_OF_PERICENTER":"59.2857","TLE_LINE2":"2 45774  53.0554 185.7660 0001460  59.2857 300.8276 15.06381736 99555","ELEMENT_SET_NO":"999","SEMIMAJOR_AXIS":"6925.405","REV_AT_EPOCH":"9955","REF_FRAME":"TEME","PERIAPSIS":"546.258","OBJECT_ID":"2020-038AW","LAUNCH_DATE":"2020-06-13","DECAY_DATE":null,"INCLINATION":"53.0554","ECCENTRICITY":"0.00014600","PERIOD":"95.593","MEAN_MOTION":"15.06381736","RCS_SIZE":"LARGE","SITE":"AFETR","CENTER_NAME":"EARTH","CLASSIFICATION_TYPE":"U","GP_ID":"200018583","RA_OF_ASC_NODE":"185.7660","EPHEMERIS_TYPE":"0","COUNTRY_CODE":"US","TIME_SYSTEM":"UTC","APOAPSIS":"548.281","NORAD_CAT_ID":"45774","FILE":"3379484","MEAN_ELEMENT_THEORY":"SGP4","MEAN_ANOMALY":"300.8276","OBJECT_NAME":"STARLINK-1485","OBJECT_TYPE":"PAYLOAD"},{"MEAN_MOTION_DOT":"0.00002948","BSTAR":"0.00021676000000","MEAN_MOTION_DDOT":"0.0000000000000","TLE_LINE1":"1 45775U 20038AX  22088.57178263  .00002948  00000-0  21676-3 0  9998","EPOCH":"2022-03-29T13:43:22.019232","PERIAPSIS":"546.256","REF_FRAME":"TEME","REV_AT_EPOCH":"9955","OBJECT_ID":"2020-038AX","ELEMENT_SET_NO":"999","TLE_LINE2":"2 45775  53.0540 186.0512 0001393  74.5733 285.5409 15.06397542 99558","ARG_OF_PERICENTER":"74.5733","SEMIMAJOR_AXIS":"6925.356","CLASSIFICATION_TYPE":"U","CENTER_NAME":"EARTH","SITE":"AFETR","RCS_SIZE":"LARGE","RA_OF_ASC_NODE":"186.0512","GP_ID":"199988468","INCLINATION":"53.0540","ECCENTRICITY":"0.00013930","DECAY_DATE":null,"LAUNCH_DATE":"2020-06-13","MEAN_MOTION":"15.06397542","PERIOD":"95.592","MEAN_ANOMALY":"285.5409","MEAN_ELEMENT_THEORY":"SGP4","FILE":"3379323","OBJECT_TYPE":"PAYLOAD","OBJECT_NAME":"STARLINK-1488","COUNTRY_CODE":"US","EPHEMERIS_TYPE":"0","NORAD_CAT_ID":"45775","APOAPSIS":"548.186","TIME_SYSTEM":"UTC"},{"MEAN_MOTION_DOT":"-0.00001852","TLE_LINE1":"1 45776U 20038AY  22088.77819850 -.00001852  00000-0 -10551-3 0  9990","EPOCH":"2022-03-29T18:40:36.350400","MEAN_MOTION_DDOT":"0.0000000000000","BSTAR":"-0.00010551000000","OBJECT_ID":"2020-038AY","PERIAPSIS":"546.248","REV_AT_EPOCH":"9958","REF_FRAME":"TEME","SEMIMAJOR_AXIS":"6925.372","TLE_LINE2":"2 45776  53.0523 185.1087 0001428  62.6454 297.4680 15.06392241 99581","ELEMENT_SET_NO":"999","ARG_OF_PERICENTER":"62.6454","GP_ID":"200017084","RA_OF_ASC_NODE":"185.1087","CLASSIFICATION_TYPE":"U","CENTER_NAME":"EARTH","SITE":"AFETR","RCS_SIZE":"LARGE","PERIOD":"95.593","MEAN_MOTION":"15.06392241","DECAY_DATE":null,"INCLINATION":"53.0523","ECCENTRICITY":"0.00014280","LAUNCH_DATE":"2020-06-13","OBJECT_TYPE":"PAYLOAD","OBJECT_NAME":"STARLINK-1489","MEAN_ANOMALY":"297.4680","FILE":"3379484","MEAN_ELEMENT_THEORY":"SGP4","TIME_SYSTEM":"UTC","NORAD_CAT_ID":"45776","APOAPSIS":"548.226","COUNTRY_CODE":"US","EPHEMERIS_TYPE":"0"},{"BSTAR":"0.00002875400000","MEAN_MOTION_DDOT":"0.0000000000000","EPOCH":"2022-03-29T15:24:13.787136","TLE_LINE1":"1 45777U 20038AZ  22088.64182624  .00000147  00000-0  28754-4 0  9998","MEAN_MOTION_DOT":"0.00000147","ARG_OF_PERICENTER":"64.0822","TLE_LINE2":"2 45777  53.0546 185.7437 0001513  64.0822 296.0323 15.06392603 99561","ELEMENT_SET_NO":"999","SEMIMAJOR_AXIS":"6925.371","REV_AT_EPOCH":"9956","REF_FRAME":"TEME","PERIAPSIS":"546.188","OBJECT_ID":"2020-038AZ","LAUNCH_DATE":"2020-06-13","DECAY_DATE":null,"INCLINATION":"53.0546","ECCENTRICITY":"0.00015130","PERIOD":"95.593","MEAN_MOTION":"15.06392603","RCS_SIZE":"LARGE","SITE":"AFETR","CLASSIFICATION_TYPE":"U","CENTER_NAME":"EARTH","GP_ID":"200017836","RA_OF_ASC_NODE":"185.7437","EPHEMERIS_TYPE":"0","COUNTRY_CODE":"US","TIME_SYSTEM":"UTC","APOAPSIS":"548.284","NORAD_CAT_ID":"45777","FILE":"3379484","MEAN_ELEMENT_THEORY":"SGP4","MEAN_ANOMALY":"296.0323","OBJECT_NAME":"STARLINK-1490","OBJECT_TYPE":"PAYLOAD"},{"OBJECT_TYPE":"PAYLOAD","OBJECT_NAME":"STARLINK-1491","MEAN_ANOMALY":"285.1415","FILE":"3379484","MEAN_ELEMENT_THEORY":"SGP4","TIME_SYSTEM":"UTC","NORAD_CAT_ID":"45778","APOAPSIS":"548.262","COUNTRY_CODE":"US","EPHEMERIS_TYPE":"0","GP_ID":"200018084","RA_OF_ASC_NODE":"185.5162","CENTER_NAME":"EARTH","CLASSIFICATION_TYPE":"U","SITE":"AFETR","RCS_SIZE":"LARGE","PERIOD":"95.593","MEAN_MOTION":"15.06388677","DECAY_DATE":null,"INCLINATION":"53.0534","ECCENTRICITY":"0.00014640","LAUNCH_DATE":"2020-06-13","OBJECT_ID":"2020-038BA","PERIAPSIS":"546.234","REV_AT_EPOCH":"9955","REF_FRAME":"TEME","SEMIMAJOR_AXIS":"6925.383","TLE_LINE2":"2 45778  53.0534 185.5162 0001464  74.9736 285.1415 15.06388677 99557","ELEMENT_SET_NO":"999","ARG_OF_PERICENTER":"74.9736","MEAN_MOTION_DOT":"-0.00001392","TLE_LINE1":"1 45778U 20038BA  22088.68974896 -.00001392  00000-0 -74566-4 0  9990","EPOCH":"2022-03-29T16:33:14.310144","MEAN_MOTION_DDOT":"0.0000000000000","BSTAR":"-0.00007456600000"}];
